KUIPER-00099            
1 65138U 25171G   25333.83335647 -.00012681  00000+0 -89731-3 0  9994
2 65138  51.8921 235.9942 0006750 193.4056  99.3931 15.03640994  5247
KUIPER-00100            
1 65139U 25171H   25333.83335647 -.00795060  00000+0 -50801-1 0  9998
2 65139  51.8856 234.6207 0002488 195.3153  33.5664 15.10635258  4852
KUIPER-00102            
1 65140U 25171J   25333.83335647 -.00021234  00000+0 -15326-2 0  9999
2 65140  51.8954 235.8672 0012482 164.5144  90.9900 15.03226767  4331
KUIPER-00103            
1 65141U 25171K   25333.21323455  .00003692  00000+0  51325-3 0  9992
2 65141  51.8994 254.8881 0006480 155.6442 204.4828 14.79920324 17834
KUIPER-00104            
1 65142U 25171L   25333.83335647 -.00028840  00000+0 -28444-2 0  9996
2 65142  51.8950 239.0748 0004562 193.9825  36.8992 14.91418199  4249
KUIPER-00105            
1 65143U 25171M   25333.79275748  .00004684  00000+0  64164-3 0  9995
2 65143  51.8988 247.3967 0013106 132.2981 227.9094 14.79993721 17996
KUIPER-00106            
1 65144U 25171N   25333.16255748  .00006730  00000+0  61041-3 0  9990
2 65144  51.8932 251.5296 0009929 123.2918 236.9004 14.96315368 17889
KUIPER-00107            
1 65145U 25171P   25333.83335647 -.00009898  00000+0 -53890-3 0  9995
2 65145  51.8823 233.5895 0006401 176.1997 124.9025 15.12895106  5709
