{
  "type": "FeatureCollection",
  "features": [
    {
      "type": "Feature",
      "properties": {
        "OBJECT_NAME": "KUIPER-00099",
        "OBJECT_ID": "2025-171G",
        "EPOCH": "2025-11-29T20:00:01.999008",
        "MEAN_MOTION": 15.03640994,
        "ECCENTRICITY": 0.000675,
        "INCLINATION": 51.8921,
        "RA_OF_ASC_NODE": 235.9942,
        "ARG_OF_PERICENTER": 193.4056,
        "MEAN_ANOMALY": 99.3931,
        "EPHEMERIS_TYPE": 0,
        "CLASSIFICATION_TYPE": "U",
        "NORAD_CAT_ID": 65138,
        "ELEMENT_SET_NO": 999,
        "REV_AT_EPOCH": 524,
        "BSTAR": -0.00089731,
        "MEAN_MOTION_DOT": -0.00012681,
        "MEAN_MOTION_DDOT": 0,
        "norad_id": 65138,
        "name": "KUIPER-00099",
        "group": "active",
        "longitude_deg": NaN,
        "latitude_deg": NaN,
        "alt_km": NaN,
        "orbit_class": "HEO",
        "timestamp": "2025-11-30T05:40:21.697872+00:00"
      },
      "geometry": {
        "type": "Point",
        "coordinates": [
          NaN,
          NaN
        ]
      }
    },
    {
      "type": "Feature",
      "properties": {
        "OBJECT_NAME": "KUIPER-00100",
        "OBJECT_ID": "2025-171H",
        "EPOCH": "2025-11-29T20:00:01.999008",
        "MEAN_MOTION": 15.10635258,
        "ECCENTRICITY": 0.0002488,
        "INCLINATION": 51.8856,
        "RA_OF_ASC_NODE": 234.6207,
        "ARG_OF_PERICENTER": 195.3153,
        "MEAN_ANOMALY": 33.5664,
        "EPHEMERIS_TYPE": 0,
        "CLASSIFICATION_TYPE": "U",
        "NORAD_CAT_ID": 65139,
        "ELEMENT_SET_NO": 999,
        "REV_AT_EPOCH": 485,
        "BSTAR": -0.050801,
        "MEAN_MOTION_DOT": -0.0079506,
        "MEAN_MOTION_DDOT": 0,
        "norad_id": 65139,
        "name": "KUIPER-00100",
        "group": "active",
        "longitude_deg": NaN,
        "latitude_deg": NaN,
        "alt_km": NaN,
        "orbit_class": "HEO",
        "timestamp": "2025-11-30T05:40:21.697880+00:00"
      },
      "geometry": {
        "type": "Point",
        "coordinates": [
          NaN,
          NaN
        ]
      }
    },
    {
      "type": "Feature",
      "properties": {
        "OBJECT_NAME": "KUIPER-00102",
        "OBJECT_ID": "2025-171J",
        "EPOCH": "2025-11-29T20:00:01.999008",
        "MEAN_MOTION": 15.03226767,
        "ECCENTRICITY": 0.0012482,
        "INCLINATION": 51.8954,
        "RA_OF_ASC_NODE": 235.8672,
        "ARG_OF_PERICENTER": 164.5144,
        "MEAN_ANOMALY": 90.99,
        "EPHEMERIS_TYPE": 0,
        "CLASSIFICATION_TYPE": "U",
        "NORAD_CAT_ID": 65140,
        "ELEMENT_SET_NO": 999,
        "REV_AT_EPOCH": 433,
        "BSTAR": -0.0015326,
        "MEAN_MOTION_DOT": -0.00021234,
        "MEAN_MOTION_DDOT": 0,
        "norad_id": 65140,
        "name": "KUIPER-00102",
        "group": "active",
        "longitude_deg": NaN,
        "latitude_deg": NaN,
        "alt_km": NaN,
        "orbit_class": "HEO",
        "timestamp": "2025-11-30T05:40:21.697887+00:00"
      },
      "geometry": {
        "type": "Point",
        "coordinates": [
          NaN,
          NaN
        ]
      }
    },
    {
      "type": "Feature",
      "properties": {
        "OBJECT_NAME": "KUIPER-00103",
        "OBJECT_ID": "2025-171K",
        "EPOCH": "2025-11-29T05:07:03.465120",
        "MEAN_MOTION": 14.79920324,
        "ECCENTRICITY": 0.00064808,
        "INCLINATION": 51.8994,
        "RA_OF_ASC_NODE": 254.8881,
        "ARG_OF_PERICENTER": 155.6442,
        "MEAN_ANOMALY": 204.4828,
        "EPHEMERIS_TYPE": 0,
        "CLASSIFICATION_TYPE": "U",
        "NORAD_CAT_ID": 65141,
        "ELEMENT_SET_NO": 999,
        "REV_AT_EPOCH": 1783,
        "BSTAR": 0.0005132475,
        "MEAN_MOTION_DOT": 3.692e-05,
        "MEAN_MOTION_DDOT": 0,
        "norad_id": 65141,
        "name": "KUIPER-00103",
        "group": "active",
        "longitude_deg": NaN,
        "latitude_deg": NaN,
        "alt_km": NaN,
        "orbit_class": "HEO",
        "timestamp": "2025-11-30T05:40:21.697893+00:00"
      },
      "geometry": {
        "type": "Point",
        "coordinates": [
          NaN,
          NaN
        ]
      }
    },
    {
      "type": "Feature",
      "properties": {
        "OBJECT_NAME": "KUIPER-00104",
        "OBJECT_ID": "2025-171L",
        "EPOCH": "2025-11-29T20:00:01.999008",
        "MEAN_MOTION": 14.91418199,
        "ECCENTRICITY": 0.0004562,
        "INCLINATION": 51.895,
        "RA_OF_ASC_NODE": 239.0748,
        "ARG_OF_PERICENTER": 193.9825,
        "MEAN_ANOMALY": 36.8992,
        "EPHEMERIS_TYPE": 0,
        "CLASSIFICATION_TYPE": "U",
        "NORAD_CAT_ID": 65142,
        "ELEMENT_SET_NO": 999,
        "REV_AT_EPOCH": 424,
        "BSTAR": -0.0028444,
        "MEAN_MOTION_DOT": -0.0002884,
        "MEAN_MOTION_DDOT": 0,
        "norad_id": 65142,
        "name": "KUIPER-00104",
        "group": "active",
        "longitude_deg": NaN,
        "latitude_deg": NaN,
        "alt_km": NaN,
        "orbit_class": "HEO",
        "timestamp": "2025-11-30T05:40:21.697900+00:00"
      },
      "geometry": {
        "type": "Point",
        "coordinates": [
          NaN,
          NaN
        ]
      }
    },
    {
      "type": "Feature",
      "properties": {
        "OBJECT_NAME": "KUIPER-00105",
        "OBJECT_ID": "2025-171M",
        "EPOCH": "2025-11-29T19:01:34.246272",
        "MEAN_MOTION": 14.79993721,
        "ECCENTRICITY": 0.0013106,
        "INCLINATION": 51.8988,
        "RA_OF_ASC_NODE": 247.3967,
        "ARG_OF_PERICENTER": 132.2981,
        "MEAN_ANOMALY": 227.9094,
        "EPHEMERIS_TYPE": 0,
        "CLASSIFICATION_TYPE": "U",
        "NORAD_CAT_ID": 65143,
        "ELEMENT_SET_NO": 999,
        "REV_AT_EPOCH": 1799,
        "BSTAR": 0.00064164,
        "MEAN_MOTION_DOT": 4.684e-05,
        "MEAN_MOTION_DDOT": 0,
        "norad_id": 65143,
        "name": "KUIPER-00105",
        "group": "active",
        "longitude_deg": NaN,
        "latitude_deg": NaN,
        "alt_km": NaN,
        "orbit_class": "HEO",
        "timestamp": "2025-11-30T05:40:21.697909+00:00"
      },
      "geometry": {
        "type": "Point",
        "coordinates": [
          NaN,
          NaN
        ]
      }
    },
    {
      "type": "Feature",
      "properties": {
        "OBJECT_NAME": "KUIPER-00106",
        "OBJECT_ID": "2025-171N",
        "EPOCH": "2025-11-29T03:54:04.966272",
        "MEAN_MOTION": 14.96315368,
        "ECCENTRICITY": 0.00099294,
        "INCLINATION": 51.8932,
        "RA_OF_ASC_NODE": 251.5296,
        "ARG_OF_PERICENTER": 123.2918,
        "MEAN_ANOMALY": 236.9004,
        "EPHEMERIS_TYPE": 0,
        "CLASSIFICATION_TYPE": "U",
        "NORAD_CAT_ID": 65144,
        "ELEMENT_SET_NO": 999,
        "REV_AT_EPOCH": 1788,
        "BSTAR": 0.0006104111,
        "MEAN_MOTION_DOT": 6.73e-05,
        "MEAN_MOTION_DDOT": 0,
        "norad_id": 65144,
        "name": "KUIPER-00106",
        "group": "active",
        "longitude_deg": NaN,
        "latitude_deg": NaN,
        "alt_km": NaN,
        "orbit_class": "HEO",
        "timestamp": "2025-11-30T05:40:21.697916+00:00"
      },
      "geometry": {
        "type": "Point",
        "coordinates": [
          NaN,
          NaN
        ]
      }
    },
    {
      "type": "Feature",
      "properties": {
        "OBJECT_NAME": "KUIPER-00107",
        "OBJECT_ID": "2025-171P",
        "EPOCH": "2025-11-29T20:00:01.999008",
        "MEAN_MOTION": 15.12895106,
        "ECCENTRICITY": 0.0006401,
        "INCLINATION": 51.8823,
        "RA_OF_ASC_NODE": 233.5895,
        "ARG_OF_PERICENTER": 176.1997,
        "MEAN_ANOMALY": 124.9025,
        "EPHEMERIS_TYPE": 0,
        "CLASSIFICATION_TYPE": "U",
        "NORAD_CAT_ID": 65145,
        "ELEMENT_SET_NO": 999,
        "REV_AT_EPOCH": 570,
        "BSTAR": -0.0005389,
        "MEAN_MOTION_DOT": -9.898e-05,
        "MEAN_MOTION_DDOT": 0,
        "norad_id": 65145,
        "name": "KUIPER-00107",
        "group": "active",
        "longitude_deg": NaN,
        "latitude_deg": NaN,
        "alt_km": NaN,
        "orbit_class": "HEO",
        "timestamp": "2025-11-30T05:40:21.697922+00:00"
      },
      "geometry": {
        "type": "Point",
        "coordinates": [
          NaN,
          NaN
        ]
      }
    }
  ]
}